[{"OBJECT_NAME":"GEOSCAN 5 (RS92S5)","OBJECT_ID":"2025-155R","EPOCH":"2026-03-09T22:01:07.273920","MEAN_MOTION":15.30265233,"ECCENTRICITY":0.00070849,"INCLINATION":97.4462,"RA_OF_ASC_NODE":37.7456,"ARG_OF_PERICENTER":154.5846,"MEAN_ANOMALY":205.5745,"EPHEMERIS_TYPE":0,"CLASSIFICATION_TYPE":"U","NORAD_CAT_ID":64891,"ELEMENT_SET_NO":999,"REV_AT_EPOCH":6562,"BSTAR":0.00068639307,"MEAN_MOTION_DOT":0.00020065,"MEAN_MOTION_DDOT":0},{"OBJECT_NAME":"STARLINK-35894","OBJECT_ID":"2025-263R","EPOCH":"2026-03-09T03:06:26.613216","MEAN_MOTION":15.27600519,"ECCENTRICITY":0.00019745,"INCLINATION":43.0052,"RA_OF_ASC_NODE":357.2906,"ARG_OF_PERICENTER":261.2199,"MEAN_ANOMALY":98.843,"EPHEMERIS_TYPE":0,"CLASSIFICATION_TYPE":"U","NORAD_CAT_ID":66500,"ELEMENT_SET_NO":999,"REV_AT_EPOCH":1877,"BSTAR":0.0011503418,"MEAN_MOTION_DOT":0.00031549,"MEAN_MOTION_DDOT":0}]
